GLOBALSTAR M067         
1 32263U 07048A   25044.69315728 -.00000105  00000+0 -59500-4 0  9991
2 32263  51.9743  37.2835 0001162  83.3510  87.8084 12.40665928794159
GLOBALSTAR M070         
1 32264U 07048B   25045.23773182 -.00000074  00000+0  16851-3 0  9990
2 32264  51.9744 143.0563 0000791 132.2871 249.2274 12.62311807799121
GLOBALSTAR M068         
1 32266U 07048D   25045.17231500 -.00000069  00000+0  19524-3 0  9992
2 32266  51.9904 317.2477 0000374 188.5994 320.4536 12.62815059802303
GLOBALSTAR M074         
1 37189U 10054B   25045.21842618 -.00000101  00000+0  16119-4 0  9990
2 37189  52.0007 153.4657 0000959 116.0831 248.7431 12.62262524661608
GLOBALSTAR M076         
1 37190U 10054C   25044.87803558 -.00000108  00000+0 -25669-4 0  9991
2 37190  52.0021 154.6588 0001121  99.8704  39.3956 12.62277508661560
GLOBALSTAR M077         
1 37191U 10054D   25044.54841400 -.00000067  00000+0  20579-3 0  9991
2 37191  52.0067 112.4867 0000650 118.5740  20.2013 12.62270834662275
